STARLINK-30383          
1 57773U 23134C   25157.58247051 -.00000751  00000+0 -40506-4 0  9997
2 57773  43.0027 258.1354 0001506 275.7914  84.2757 15.02541238 97934
STARLINK-30384          
1 57774U 23134D   25156.57864684 -.00000567  00000+0 -26933-4 0  9996
2 57774  43.0032 263.5027 0001569 263.6177  96.4487 15.02534601 97788
STARLINK-30305          
1 57775U 23134E   25157.57914174  .00000951  00000+0  85501-4 0  9999
2 57775  43.0031 258.1101 0001411 271.8226  88.2454 15.02531704 97934
STARLINK-30360          
1 57776U 23134F   25157.57247962 -.00000040  00000+0  12101-4 0  9990
2 57776  43.0022 258.0594 0001074 265.2457  94.8263 15.02523093 97931
STARLINK-30355          
1 57777U 23134G   25157.56581635  .00000324  00000+0  39052-4 0  9996
2 57777  43.0040 257.9825 0001770 262.5161  97.5480 15.02546280 97925
STARLINK-30385          
1 57778U 23134H   25157.51959867 -.00001759  00000+0 -11509-3 0  9999
2 57778  43.0029 245.6684 0001607 268.4046  91.6612 15.02548695 97919
STARLINK-30359          
1 57779U 23134J   25157.57942399  .00001824  00000+0  15006-3 0  9995
2 57779  43.0023 245.2939 0001262 271.6791  88.3907 15.02535827 98085
STARLINK-30380          
1 57780U 23134K   25157.53919608 -.00004404  00000+0 -31123-3 0  9997
2 57780  43.0020 257.8027 0000892 270.3525  89.7215 15.02530570 97930
STARLINK-30369          
1 57781U 23134L   25157.29655092  .00004669  00000+0  36028-3 0  9995
2 57781  43.0037 259.4170 0001709 261.4708  98.5941 15.02553612 97822
STARLINK-30376          
1 57782U 23134M   25157.54251039  .00000723  00000+0  68615-4 0  9992
2 57782  43.0023 257.8385 0001495 282.8942  77.1733 15.02544308 97933
STARLINK-30389          
1 57783U 23134N   25157.55582942  .00002706  00000+0  21533-3 0  9994
2 57783  43.0031 257.9350 0001334 277.8839  82.1852 15.02533609 97937
STARLINK-30388          
1 57784U 23134P   25157.55249921  .00000992  00000+0  88514-4 0  9990
2 57784  43.0027 257.9095 0001760 277.8653  82.1989 15.02544621 97933
STARLINK-30381          
1 57785U 23134Q   25157.26326402 -.00004449  00000+0 -31448-3 0  9995
2 57785  43.0026 259.0870 0001671 262.8236  97.2416 15.02530982 97891
STARLINK-30382          
1 57786U 23134R   25157.54916838 -.00002042  00000+0 -13608-3 0  9990
2 57786  43.0034 257.8849 0001711 272.4351  87.6295 15.02548605 97937
STARLINK-30378          
1 57787U 23134S   25157.52586071  .00001792  00000+0  14767-3 0  9997
2 57787  43.0031 257.7089 0001589 269.5154  90.5506 15.02534532 97933
STARLINK-30387          
1 57788U 23134T   25157.51614319  .00002343  00000+0  18841-3 0  9994
2 57788  43.0022 244.8292 0001702 267.7390  92.3257 15.02546245 98080
STARLINK-30372          
1 57789U 23134U   25157.47286430  .00003851  00000+0  14575-3 0  9994
2 57789  43.0013 198.3788 0001338 274.0882  85.9817 15.28402165 98626
STARLINK-30373          
1 57790U 23134V   25157.24180655  .00065002  00000+0  19905-2 0  9990
2 57790  42.9966 223.2757 0006420  44.5161 315.6208 15.32939454 98318
STARLINK-30367          
1 57791U 23134W   25157.26993889  .00001477  00000+0  12443-3 0  9991
2 57791  43.0026 259.2284 0001272 266.2430  93.8267 15.02531944 97895
STARLINK-30304          
1 57808U 23138A   25157.43302843  .00018266  00000+0  54908-3 0  9993
2 57808  42.9991 182.2360 0005936  77.7388 282.4131 15.34073690 98443
STARLINK-30374          
1 57809U 23138B   25157.55172122  .00001188  00000+0  10303-3 0  9998
2 57809  43.0040 296.8790 0001343 256.0374 104.0319 15.02533392 97176
STARLINK-30394          
1 57810U 23138C   25156.75065597  .00001522  00000+0  12768-3 0  9997
2 57810  43.0043 301.1905 0001554 275.1876  84.8789 15.02549303 96952
STARLINK-30379          
1 57811U 23138D   25157.41211005  .00001160  00000+0  10097-3 0  9990
2 57811  43.0040 297.5544 0001224 286.1728  73.8980 15.02534063 97150
STARLINK-30395          
1 57812U 23138E   25157.40880650 -.00000369  00000+0 -12261-4 0  9996
2 57812  43.0037 297.5283 0001349 266.7743  93.2944 15.02508586 97153
STARLINK-30403          
1 57813U 23138F   25157.40545206  .00001406  00000+0  11913-3 0  9995
2 57813  43.0033 297.5028 0001315 266.2432  93.8260 15.02528401 97054
STARLINK-30413          
1 57814U 23138G   25156.72072462 -.00004495  00000+0 -31815-3 0  9995
2 57814  43.0008 300.9690 0000835 263.1740  96.9007 15.02504628 97042
STARLINK-30398          
1 57815U 23138H   25156.40495492  .00000156  00000+0  26607-4 0  9995
2 57815  43.0028 302.8962 0001229 277.2365  82.8338 15.02550644 96897
STARLINK-30386          
1 57816U 23138J   25157.39878565 -.00002422  00000+0 -16427-3 0  9999
2 57816  43.0034 297.4535 0001103 269.6348  90.4367 15.02537518 96978
STARLINK-30391          
1 57817U 23138K   25157.46195763  .00010059  00000+0  75940-3 0  9998
2 57817  43.0042 297.0664 0000905 256.0355 104.0387 15.02497826 97167
STARLINK-30401          
1 57818U 23138L   25157.39213326  .00001748  00000+0  14449-3 0  9999
2 57818  43.0035 297.4035 0001168 268.2846  91.7863 15.02529188 97054
STARLINK-30390          
1 57819U 23138M   25157.45525717 -.00013093  00000+0 -95456-3 0  9992
2 57819  43.0037 297.0172 0001860 273.9189  86.1440 15.02588811 97100
STARLINK-30409          
1 57820U 23138N   25157.44195630  .00001025  00000+0  90935-4 0  9998
2 57820  43.0040 296.8986 0001542 279.9704  80.0965 15.02546904 97104
STARLINK-30415          
1 57821U 23138P   25157.44639747 -.00005049  00000+0 -35885-3 0  9995
2 57821  43.0049 296.9518 0001405 274.3281  85.7401 15.02543928 97169
STARLINK-30407          
1 57823U 23138R   25157.54348554  .00004748  00000+0  18199-3 0  9993
2 57823  43.0011 248.3056 0002045 266.8906  93.1711 15.27571966 97739
STARLINK-30408          
1 57824U 23138S   25157.64471093 -.00009533  00000+0 -69074-3 0  9997
2 57824  43.0042 295.8573 0001520 268.6645  91.4023 15.02582352 97182
STARLINK-30377          
1 57825U 23138T   25157.42864724  .00004631  00000+0  35791-3 0  9992
2 57825  43.0071 296.8169 0001817 271.8741  88.1893 15.02507986 97053
STARLINK-30422          
1 57826U 23138U   25157.43196843  .00001211  00000+0  10474-3 0  9996
2 57826  43.0038 296.8410 0001346 274.7741  85.2947 15.02535013 97156
STARLINK-30402          
1 57827U 23138V   25157.43640546  .00000774  00000+0  72376-4 0  9994
2 57827  43.0046 296.8740 0001785 271.1914  88.8724 15.02539740 97155
STARLINK-30411          
1 57828U 23138W   25157.57160027  .00013890  00000+0  10429-2 0  9993
2 57828  43.0043 296.1453 0002135 258.8239 101.2364 15.02475584 97110
STARLINK-30418          
1 57829U 23138X   25157.49179435  .00001524  00000+0  12789-3 0  9991
2 57829  43.0059 296.4292 0002279 269.8316  90.2265 15.02526344 97005
STARLINK-30285          
1 57840U 23141A   25157.31670012 -.00000870  00000+0 -17267-4 0  9998
2 57840  53.1591 127.8713 0001446  89.7439 270.3727 15.30192673 98017
STARLINK-30410          
1 57841U 23141B   25157.32933094 -.00000798  00000+0 -14829-4 0  9992
2 57841  53.1600 127.7635 0001255  74.8601 285.2538 15.30198024 98016
STARLINK-30435          
1 57842U 23141C   25157.33250141 -.00000173  00000+0  62712-5 0  9990
2 57842  53.1596 127.8126 0001178  78.3549 281.7584 15.30199070 98015
STARLINK-30423          
1 57843U 23141D   25156.94482871 -.00000506  00000+0 -49775-5 0  9999
2 57843  53.1589 129.6152 0001047  81.0908 279.0211 15.30197028 97952
STARLINK-30292          
1 57844U 23141E   25157.60527932  .00000037  00000+0  13368-4 0  9997
2 57844  53.1601 126.1312 0001108  97.2207 262.8920 15.30201245 98064
STARLINK-30416          
1 57847U 23141H   25157.45365464 -.00001761  00000+0 -47351-4 0  9999
2 57847  53.1593 127.2749 0001144  85.2027 274.9104 15.30195634 98039
STARLINK-30426          
1 57848U 23141J   25157.33987349 -.00000034  00000+0  10985-4 0  9993
2 57848  53.1601 127.7799 0001213  79.3873 280.7264 15.30199318 98013
STARLINK-30430          
1 57849U 23141K   25157.18922914  .00002157  00000+0  84971-4 0  9997
2 57849  53.1595 128.5071 0001243  78.9849 281.1292 15.30190056 97991
STARLINK-30425          
1 57850U 23141L   25157.60429915  .00000508  00000+0  29289-4 0  9998
2 57850  53.1599 126.5933 0001119  81.8235 278.2893 15.30194629 98058
STARLINK-30405          
1 57851U 23141M   25157.32618634 -.00000095  00000+0  89132-5 0  9992
2 57851  53.1583 127.8843 0001253  82.2947 277.8196 15.30197522 98012
STARLINK-30431          
1 57852U 23141N   25157.34930403  .00000200  00000+0  18874-4 0  9997
2 57852  53.1596 127.3737 0001089  97.8352 262.2772 15.30195529 98016
STARLINK-30404          
1 57853U 23141P   25157.60633073  .00000197  00000+0  18775-4 0  9995
2 57853  53.1597 126.1335 0001260  94.2293 265.8852 15.30195643 98065
STARLINK-30412          
1 57854U 23141Q   25157.35562889  .00000355  00000+0  24133-4 0  9995
2 57854  53.1603 127.4128 0001408  85.6613 274.4548 15.30190369 98026
STARLINK-30392          
1 57855U 23141R   25157.28714813 -.00000462  00000+0 -34663-5 0  9995
2 57855  53.1593 127.6953 0001172  95.6107 264.5028 15.30195771 98014
STARLINK-30291          
1 57856U 23141S   25157.17973505  .00000516  00000+0  29564-4 0  9990
2 57856  53.1591 128.4426 0001437  94.4135 265.7030 15.30195738 97994
STARLINK-30424          
1 57857U 23141T   25157.56520823 -.00000010  00000+0  97327-5 0  9998
2 57857  53.1589 102.0415 0001176  90.0132 270.1007 15.39621246 98393
STARLINK-30290          
1 57858U 23141U   25157.23133311 -.00000833  00000+0 -16008-4 0  9995
2 57858  53.1595 128.0573 0001346  95.4931 264.6224 15.30192760 98001
STARLINK-30414          
1 57859U 23141V   25157.16285344  .00001004  00000+0  46017-4 0  9994
2 57859  53.1596 128.3398 0001315  83.7016 276.4135 15.30196210 97994
STARLINK-30272          
1 57860U 23141W   25157.31353049 -.00000675  00000+0 -10659-4 0  9999
2 57860  53.1600 127.8546 0001347  91.8683 268.2472 15.30195247 98012
